NORAD_CAT_ID,OBJECT_NAME,OBJECT_TYPE,EPOCH,MEAN_MOTION,ECCENTRICITY,INCLINATION,RA_OF_ASC_NODE,ARG_OF_PERICENTER,MEAN_ANOMALY,BSTAR,MEAN_MOTION_DOT,MEAN_MOTION_DDOT,TLE_LINE0,TLE_LINE1,TLE_LINE2,SEMIMAJOR_AXIS,PERIOD,APOGEE,PERIGEE,DECAYED
50181.0,STARLINK-3285,PAYLOAD,2022-06-06 18:30:54,15.08848934,0.0002252,53.2189,287.8931,38.4831,321.6322,4.3059e-05,3.97e-06,0.0,0 STARLINK-3285,1 50181U 21125AB  22157.77146491  .00000397  00000-0  43059-4 0  9996,2 50181  53.2189 287.8931 0002252  38.4831 321.6322 15.08848934 29494,6917.853,95.437,541.276,538.16,0.0
50181.0,STARLINK-3285,PAYLOAD,2022-06-07 12:00:09,15.08846697,0.0002667,53.2184,284.6231,46.6126,313.5087,-0.00012602,-2.294e-05,0.0,0 STARLINK-3285,1 50181U 21125AB  22158.50011089 -.00002294  00000-0 -12602-3 0  9991,2 50181  53.2184 284.6231 0002667  46.6126 313.5087 15.08846697 29116,6917.86,95.437,541.57,537.88,0.0
50181.0,STARLINK-3285,PAYLOAD,2022-06-07 18:21:41,15.08843174,0.0002529,53.218,283.4336,37.5396,322.5772,3.2867e-05,2.35e-06,0.0,0 STARLINK-3285,1 50181U 21125AB  22158.76506560  .00000235  00000-0  32867-4 0  9999,2 50181  53.2180 283.4336 0002529  37.5396 322.5772 15.08843174 29646,6917.871,95.437,541.485,537.986,0.0
50181.0,STARLINK-3285,PAYLOAD,2022-06-08 10:15:33,15.08841972,0.0002432,53.2186,280.461,39.8771,320.24,5.8855e-07,-2.79e-06,0.0,0 STARLINK-3285,1 50181U 21125AB  22159.42746656 -.00000279  00000-0  58855-6 0  9991,2 50181  53.2186 280.4610 0002432  39.8771 320.2400 15.08841972 29747,6917.874,95.437,541.422,538.057,0.0
50181.0,STARLINK-3285,PAYLOAD,2022-06-08 16:37:05,15.08839151,0.0002257,53.2198,279.2723,42.9633,317.1535,-2.9748e-05,-7.62e-06,0.0,0 STARLINK-3285,1 50181U 21125AB  22159.69242894 -.00000762  00000-0 -29748-4 0  9990,2 50181  53.2198 279.2723 0002257  42.9633 317.1535 15.08839151 29298,6917.8830000000025,95.438,541.309,538.187,0.0
50181.0,STARLINK-3285,PAYLOAD,2022-06-09 10:06:20,15.08834498,0.0002247,53.2204,276.0022,45.3502,314.7673,-3.287e-05,-8.11e-06,0.0,0 STARLINK-3285,1 50181U 21125AB  22160.42107365 -.00000811  00000-0 -32870-4 0  9991,2 50181  53.2204 276.0022 0002247  45.3502 314.7673 15.08834498 29895,6917.897,95.438,541.317,538.2080000000002,0.0
50181.0,STARLINK-3285,PAYLOAD,2022-06-09 16:27:53,15.08830093,0.0002234,53.2201,274.8124,43.765,316.3519,-7.1184e-05,-1.421e-05,0.0,0 STARLINK-3285,1 50181U 21125AB  22160.68603883 -.00001421  00000-0 -71184-4 0  9994,2 50181  53.2201 274.8124 0002234  43.7650 316.3519 15.08830093 29448,6917.911,95.438,541.321,538.23,0.0
50181.0,STARLINK-3285,PAYLOAD,2022-06-10 09:57:08,15.08831155,0.0002242,53.2197,271.5415,43.2906,316.8262,-7.689400000000001e-06,-4.11e-06,0.0,0 STARLINK-3285,1 50181U 21125AB  22161.41467995 -.00000411  00000-0 -76894-5 0  9990,2 50181  53.2197 271.5415 0002242  43.2906 316.8262 15.08831155 30045,6917.906999999997,95.438,541.323,538.221,0.0
50181.0,STARLINK-3285,PAYLOAD,2022-06-10 17:54:04,15.08829093,0.000231,53.2186,270.0537,37.9412,322.1743,-2.1397e-05,-6.29e-06,0.0,0 STARLINK-3285,1 50181U 21125AB  22161.74588400 -.00000629  00000-0 -21397-4 0  9999,2 50181  53.2186 270.0537 0002310  37.9412 322.1743 15.08829093 29602,6917.9140000000025,95.438,541.377,538.181,0.0
50181.0,STARLINK-3285,PAYLOAD,2022-06-11 01:50:58,15.08866912,0.0002202,53.2186,268.5669,47.542,312.5758,-0.00039239,-6.533e-05,0.0,0 STARLINK-3285,1 50181U 21125AB  22162.07707053 -.00006533  00000-0 -39239-3 0  9996,2 50181  53.2186 268.5669 0002202  47.5420 312.5758 15.08866912 29651,6917.7980000000025,95.436,541.186,538.14,0.0
50181.0,STARLINK-3285,PAYLOAD,2022-06-11 12:58:41,15.088371,0.000219,53.2182,266.4848,33.2476,326.8653,0.0001056,1.393e-05,0.0,0 STARLINK-3285,1 50181U 21125AB  22162.54075828  .00001393  00000-0  10560-3 0  9999,2 50181  53.2182 266.4848 0002190  33.2476 326.8653 15.08837100 29729,6917.889,95.438,541.269,538.239,0.0
50181.0,STARLINK-3285,PAYLOAD,2022-06-11 16:09:27,15.08839389,0.0002204,53.2182,265.89,33.5842,326.5289,0.00012221,1.657e-05,0.0,0 STARLINK-3285,1 50181U 21125AB  22162.67323671  .00001657  00000-0  12221-3 0  9994,2 50181  53.2182 265.8900 0002204  33.5842 326.5289 15.08839389 30238,6917.882,95.438,541.2719999999998,538.2230000000002,0.0
50181.0,STARLINK-3285,PAYLOAD,2022-06-12 12:49:28,15.08837013,0.0002042,53.2183,262.0241,33.5103,326.6018,6.4656e-05,7.41e-06,0.0,0 STARLINK-3285,1 50181U 21125AB  22163.53436104  .00000741  00000-0  64656-4 0  9999,2 50181  53.2183 262.0241 0002042  33.5103 326.6018 15.08837013 30363,6917.89,95.438,541.1669999999998,538.342,0.0
50181.0,STARLINK-3285,PAYLOAD,2022-06-12 16:00:14,15.08840138,0.0002111,53.2183,261.4297,32.2632,327.8489,8.6346e-05,1.086e-05,0.0,0 STARLINK-3285,1 50181U 21125AB  22163.66683867  .00001086  00000-0  86346-4 0  9996,2 50181  53.2183 261.4297 0002111  32.2632 327.8489 15.08840138 29890,6917.88,95.438,541.205,538.285,0.0
50181.0,STARLINK-3285,PAYLOAD,2022-06-13 12:40:15,15.08842912,0.0002151,53.2182,257.5642,34.9153,325.198,5.7504e-05,6.27e-06,0.0,0 STARLINK-3285,1 50181U 21125AB  22164.52795709  .00000627  00000-0  57504-4 0  9995,2 50181  53.2182 257.5642 0002151  34.9153 325.1980 15.08842912 30510,6917.871,95.437,541.225,538.248,0.0
50181.0,STARLINK-3285,PAYLOAD,2022-06-14 04:34:06,15.08849286,0.0002143,53.2178,254.5904,38.1622,321.9521,0.00016916,2.406e-05,0.0,0 STARLINK-3285,1 50181U 21125AB  22165.19034934  .00002406  00000-0  16916-3 0  9993,2 50181  53.2178 254.5904 0002143  38.1622 321.9521 15.08849286 30124,6917.852,95.437,541.2,538.235,0.0
50181.0,STARLINK-3285,PAYLOAD,2022-06-14 12:31:02,15.08846856,0.0002221,53.2173,253.1036,36.0946,324.0195,0.00015392,2.163e-05,0.0,0 STARLINK-3285,1 50181U 21125AB  22165.52155222  .00002163  00000-0  15392-3 0  9991,2 50181  53.2173 253.1036 0002221  36.0946 324.0195 15.08846856 30663,6917.859,95.437,541.261,538.188,0.0
50181.0,STARLINK-3285,PAYLOAD,2022-06-14 15:41:48,15.08847574,0.0002275,53.2171,252.5092,36.7785,323.3363,0.0001518,2.129e-05,0.0,0 STARLINK-3285,1 50181U 21125AB  22165.65403196  .00002129  00000-0  15180-3 0  9998,2 50181  53.2171 252.5092 0002275  36.7785 323.3363 15.08847574 30198,6917.857,95.437,541.2959999999998,538.148,0.0
50181.0,STARLINK-3285,PAYLOAD,2022-06-15 12:21:49,15.08838624,0.0002283,53.2169,248.6417,37.3256,322.7894,-6.0041e-05,-1.244e-05,0.0,0 STARLINK-3285,1 50181U 21125AB  22166.51515661 -.00001244  00000-0 -60041-4 0  9991,2 50181  53.2169 248.6417 0002283  37.3256 322.7894 15.08838624 30324,6917.885,95.438,541.3290000000002,538.17,0.0
50181.0,STARLINK-3285,PAYLOAD,2022-06-15 21:54:08,15.0883531,0.000228,53.2171,246.8603,34.7579,325.3562,-3.4352e-05,-8.35e-06,0.0,0 STARLINK-3285,1 50181U 21125AB  22166.91260036 -.00000835  00000-0 -34352-4 0  9999,2 50181  53.2171 246.8603 0002280  34.7579 325.3562 15.08835310 30870,6917.895,95.438,541.337,538.182,0.0
50181.0,STARLINK-3285,PAYLOAD,2022-06-19 13:20:22,15.08837278,0.0002316,53.2161,230.5058,33.5838,326.53,0.00014318,1.991e-05,0.0,0 STARLINK-3285,1 50181U 21125AB  22170.55581177  .00001991  00000-0  14318-3 0  9997,2 50181  53.2161 230.5058 0002316  33.5838 326.5300 15.08837278 31428,6917.889,95.438,541.356,538.1519999999998,0.0
50181.0,STARLINK-3285,PAYLOAD,2022-06-19 21:17:17,15.08839684,0.0002383,53.2161,229.0188,31.5527,328.5608,0.00017036,2.424e-05,0.0,0 STARLINK-3285,1 50181U 21125AB  22170.88701145  .00002424  00000-0  17036-3 0  9994,2 50181  53.2161 229.0188 0002383  31.5527 328.5608 15.08839684 31473,6917.880999999999,95.438,541.395,538.0980000000002,0.0
50181.0,STARLINK-3285,PAYLOAD,2022-06-20 10:00:22,15.08846336,0.000245,53.2163,226.6399,30.6541,329.4594,0.00026241,3.891e-05,0.0,0 STARLINK-3285,1 50181U 21125AB  22171.41692938  .00003891  00000-0  26241-3 0  9990,2 50181  53.2163 226.6399 0002450  30.6541 329.4594 15.08846336 31558,6917.861,95.437,541.4209999999998,538.031,0.0
50181.0,STARLINK-3285,PAYLOAD,2022-06-20 21:08:04,15.0885342,0.0002469,53.2166,224.5583,30.6531,329.4605,0.00030476,4.567e-05,0.0,0 STARLINK-3285,1 50181U 21125AB  22171.88060470  .00004567  00000-0  30476-3 0  9997,2 50181  53.2166 224.5583 0002469  30.6531 329.4605 15.08853420 31131,6917.839,95.437,541.4119999999998,537.996,0.0
50181.0,STARLINK-3285,PAYLOAD,2022-06-21 03:29:37,15.08838588,0.0002368,53.2167,223.3687,31.295,328.8183,7.6668e-05,9.32e-06,0.0,0 STARLINK-3285,1 50181U 21125AB  22172.14557002  .00000932  00000-0  76668-4 0  9995,2 50181  53.2167 223.3687 0002368  31.2950 328.8183 15.08838588 31170,6917.885,95.438,541.388,538.112,0.0
50181.0,STARLINK-3285,PAYLOAD,2022-06-21 13:01:55,15.08841128,0.0002343,53.2172,221.5843,32.3672,327.7463,7.9927e-05,9.84e-06,0.0,0 STARLINK-3285,1 50181U 21125AB  22172.54300850  .00000984  00000-0  79927-4 0  9994,2 50181  53.2172 221.5843 0002343  32.3672 327.7463 15.08841128 31720,6917.877,95.437,541.363,538.121,0.0
50181.0,STARLINK-3285,PAYLOAD,2022-06-22 09:41:57,15.08837611,0.0002425,53.2167,217.7184,34.5346,325.5803,-3.2002e-07,-2.93e-06,0.0,0 STARLINK-3285,1 50181U 21125AB  22173.40413197 -.00000293  00000-0 -32002-6 0  9999,2 50181  53.2167 217.7184 0002425  34.5346 325.5803 15.08837611 31368,6917.888000000001,95.438,541.43,538.075,0.0
50181.0,STARLINK-3285,PAYLOAD,2022-06-23 09:32:44,15.08836905,0.000246,53.2171,213.2583,31.7159,328.3981,9.4554e-05,1.217e-05,0.0,0 STARLINK-3285,1 50181U 21125AB  22174.39773232  .00001217  00000-0  94554-4 0  9990,2 50181  53.2171 213.2583 0002460  31.7159 328.3981 15.08836905 32002,6917.89,95.438,541.457,538.053,0.0
50181.0,STARLINK-3285,PAYLOAD,2022-06-23 19:05:02,15.08837935,0.000253,53.2165,211.4743,31.6035,328.5109,5.9123e-05,6.53e-06,0.0,0 STARLINK-3285,1 50181U 21125AB  22174.79517180  .00000653  00000-0  59123-4 0  9998,2 50181  53.2165 211.4743 0002530  31.6035 328.5109 15.08837935 31572,6917.887,95.438,541.502,538.001,0.0
